OBJECT_NAME,OBJECT_ID,EPOCH,MEAN_MOTION,ECCENTRICITY,INCLINATION,RA_OF_ASC_NODE,ARG_OF_PERICENTER,MEAN_ANOMALY,EPHEMERIS_TYPE,CLASSIFICATION_TYPE,NORAD_CAT_ID,ELEMENT_SET_NO,REV_AT_EPOCH,BSTAR,MEAN_MOTION_DOT,MEAN_MOTION_DDOT
TRITON-1,2013-066M,2026-07-12T05:08:21.176736,14.81788777,.00903368,97.8226,102.4496,151.7393,208.8764,0,U,39427,999,67779,.11039071E-3,.878E-5,0
GOMX-1,2013-066Q,2026-07-12T07:28:33.064320,14.69538478,.01285439,97.6477,32.1889,357.4914,2.5632,0,U,39430,999,67360,.13862496E-3,.881E-5,0
CUBEBUG-2 (LO-74),2013-066AA,2026-07-12T07:33:50.653440,14.93955186,.00559859,97.8909,142.4045,305.1332,54.4648,0,U,39440,999,68074,.17183435E-3,.1823E-4,0
NEE-02 KRYSAOR,2013-066AB,2026-07-11T18:36:46.089216,14.86730516,.0065707,97.8892,131.8170,350.5702,9.4275,0,U,39441,999,67985,.17017859E-3,.1515E-4,0
FUNCUBE-1 (AO-73),2013-066AE,2026-07-11T21:54:09.783072,15.09793381,.0037972,97.8287,164.8814,118.2418,242.2652,0,U,39444,999,68339,.24262E-3,.3917E-4,0
UWE-3,2013-066AG,2026-07-11T19:28:32.557152,14.97185641,.00475172,97.8698,149.0559,236.3304,123.3381,0,U,39446,999,68126,.15712987E-3,.1794E-4,0
SMDC ONE 2.4,2013-072H,2026-07-12T05:20:34.228896,15.18753217,.01478265,120.4915,88.7818,45.3955,315.9074,0,U,39469,999,12163,.30755285E-3,.8182E-4,0
COSMOS 2488 (RODNIK-S 7),2013-076A,2026-07-12T05:35:31.123104,12.42906319,.00206734,82.4845,153.0914,43.6673,316.6038,0,U,39483,999,56900,.18050313E-4,.12E-6,0
COSMOS 2489 (RODNIK-S 8),2013-076B,2026-07-12T06:56:29.084928,12.42880368,.0022491,82.4880,154.4433,43.3234,316.9609,0,U,39484,999,56906,.49131107E-3,.78E-6,0
COSMOS 2490 (RODNIK-S 9),2013-076C,2026-07-12T06:16:03.262368,12.42879255,.00228553,82.4828,152.5173,58.2057,302.1245,0,U,39485,999,56899,.24856673E-3,.44E-6,0
KAZEOSAT 1,2014-024A,2026-07-12T08:20:07.074240,14.42036368,.00012603,98.3202,265.1674,81.9579,278.1754,0,U,39731,999,64218,.14344413E-4,.4E-7,0
COSMOS 2496 (RODNIK-S 10),2014-028A,2026-07-12T07:10:44.812992,12.42879378,.00209666,82.4455,93.0037,27.0089,333.2076,0,U,39761,999,55063,.20817317E-3,.39E-6,0
COSMOS 2497 (RODNIK-S 11),2014-028B,2026-07-12T06:34:41.444256,12.42894917,.00214242,82.4503,94.7187,22.1693,338.0309,0,U,39762,999,55063,-.23970132E-3,-.23E-6,0
COSMOS 2498 (RODNIK-S 12),2014-028C,2026-07-12T07:55:50.861856,12.42980687,.00221442,82.4463,93.1597,21.5744,338.6264,0,U,39763,999,55067,-.14923218E-3,-.11E-6,0
HODOYOSHI-4,2014-033B,2026-07-12T05:58:03.952704,14.88182070,.00224831,97.5459,16.8632,219.9350,140.0214,0,U,40011,999,65253,.43660764E-4,.352E-5,0
UNISAT-6,2014-033C,2026-07-12T05:03:22.789152,14.88359055,.00444261,97.7904,345.4875,347.7479,12.2654,0,U,40012,999,64988,.13418868E-3,.1207E-4,0
DEIMOS-2,2014-033D,2026-07-12T07:16:36.848064,14.93789175,.00009034,97.5804,66.9067,85.6902,274.4422,0,U,40013,999,64147,.10170864E-4,.54E-6,0
BUGSAT-1 (TITA),2014-033E,2026-07-12T06:06:32.313888,15.15864097,.00291137,98.0437,287.2734,95.4671,264.9882,0,U,40014,999,65963,.20640817E-3,.3914E-4,0
SAUDISAT 4,2014-033G,2026-07-11T20:54:11.368224,14.79573545,.00445327,97.7612,338.1563,354.9490,5.1267,0,U,40016,999,64972,.42891132E-4,.274E-5,0
APRIZESAT 9,2014-033J,2026-07-11T20:17:47.031072,14.74249965,.00673381,97.9089,325.4456,120.4864,240.3018,0,U,40018,999,64719,.62796476E-4,.378E-5,0
BRITE-CA1 (TORONTO),2014-033L,2026-07-11T20:05:46.288320,14.72718584,.00781937,97.9767,321.3152,197.0405,162.8175,0,U,40020,999,64584,.93137253E-4,.569E-5,0
