TRITON-1                
1 39427U 13066M   26193.21413399  .00000878  00000+0  11039-3 0  9993
2 39427  97.8226 102.4496 0090336 151.7393 208.8764 14.81788777677796
GOMX-1                  
1 39430U 13066Q   26193.31149380  .00000881  00000+0  13862-3 0  9994
2 39430  97.6477  32.1889 0128543 357.4914   2.5632 14.69538478673603
CUBEBUG-2 (LO-74)       
1 39440U 13066AA  26193.31516960  .00001823  00000+0  17183-3 0  9994
2 39440  97.8909 142.4045 0055985 305.1332  54.4648 14.93955186680740
NEE-02 KRYSAOR          
1 39441U 13066AB  26192.77553344  .00001515  00000+0  17018-3 0  9996
2 39441  97.8892 131.8170 0065707 350.5702   9.4275 14.86730516679857
FUNCUBE-1 (AO-73)       
1 39444U 13066AE  26192.91261323  .00003917  00000+0  24262-3 0  9995
2 39444  97.8287 164.8814 0037972 118.2418 242.2652 15.09793381683390
UWE-3                   
1 39446U 13066AG  26192.81148793  .00001794  00000+0  15713-3 0  9993
2 39446  97.8698 149.0559 0047517 236.3304 123.3381 14.97185641681263
SMDC ONE 2.4            
1 39469U 13072H   26193.22261839  .00008182  00000+0  30755-3 0  9999
2 39469 120.4915  88.7818 0147826  45.3955 315.9074 15.18753217121636
COSMOS 2488 (RODNIK-S 7)
1 39483U 13076A   26193.23299911  .00000012  00000+0  18050-4 0  9991
2 39483  82.4845 153.0914 0020673  43.6673 316.6038 12.42906319569004
COSMOS 2489 (RODNIK-S 8)
1 39484U 13076B   26193.28922552  .00000078  00000+0  49131-3 0  9996
2 39484  82.4880 154.4433 0022491  43.3234 316.9609 12.42880368569063
COSMOS 2490 (RODNIK-S 9)
1 39485U 13076C   26193.26114887  .00000044  00000+0  24857-3 0  9990
2 39485  82.4828 152.5173 0022855  58.2057 302.1245 12.42879255568995
KAZEOSAT 1              
1 39731U 14024A   26193.34730410  .00000004  00000+0  14344-4 0  9990
2 39731  98.3202 265.1674 0001260  81.9579 278.1754 14.42036368642180
COSMOS 2496 (RODNIK-S *)
1 39761U 14028A   26193.29912978  .00000039  00000+0  20817-3 0  9991
2 39761  82.4455  93.0037 0020966  27.0089 333.2076 12.42879378550631
COSMOS 2497 (RODNIK-S *)
1 39762U 14028B   26193.27409079 -.00000023  00000+0 -23970-3 0  9991
2 39762  82.4503  94.7187 0021424  22.1693 338.0309 12.42894917550635
COSMOS 2498 (RODNIK-S *)
1 39763U 14028C   26193.33044979 -.00000011  00000+0 -14923-3 0  9998
2 39763  82.4463  93.1597 0022144  21.5744 338.6264 12.42980687550679
HODOYOSHI-4             
1 40011U 14033B   26193.24865686  .00000352  00000+0  43661-4 0  9996
2 40011  97.5459  16.8632 0022483 219.9350 140.0214 14.88182070652533
UNISAT-6                
1 40012U 14033C   26193.21068043  .00001207  00000+0  13419-3 0  9993
2 40012  97.7904 345.4875 0044426 347.7479  12.2654 14.88359055649885
DEIMOS-2                
1 40013U 14033D   26193.30320426  .00000054  00000+0  10171-4 0  9992
2 40013  97.5804  66.9067 0000903  85.6902 274.4422 14.93789175641470
BUGSAT-1 (TITA)         
1 40014U 14033E   26193.25454067  .00003914  00000+0  20641-3 0  9996
2 40014  98.0437 287.2734 0029113  95.4671 264.9882 15.15864097659637
SAUDISAT 4              
1 40016U 14033G   26192.87096491  .00000274  00000+0  42891-4 0  9996
2 40016  97.7612 338.1563 0044532 354.9490   5.1267 14.79573545649725
APRIZESAT 9             
1 40018U 14033J   26192.84568323  .00000378  00000+0  62796-4 0  9994
2 40018  97.9089 325.4456 0067338 120.4864 240.3018 14.74249965647194
BRITE-CA1 (TORONTO)     
1 40020U 14033L   26192.83734130  .00000569  00000+0  93137-4 0  9992
2 40020  97.9767 321.3152 0078193 197.0405 162.8175 14.72718584645848
